CRE (WAAS/PRN 138)      
1 28868U 05036A   22239.47322226 -.00000077  00000+0  00000+0 0  9995
2 28868   0.7337  93.1391 0002723  31.2536 274.3341  1.00273019 32512
IOR-W (EGNOS/PRN 126)   
1 28899U 05044A   22239.47848418  .00000009  00000+0  00000+0 0  9998
2 28899   3.5532  37.9588 0002676 128.6295  45.2623  1.00272049 61587
QZS-1 (QZSS/PRN 183)    
1 37158U 10045A   22238.63428557 -.00000197  00000+0  00000+0 0  9997
2 37158  42.4026 132.4216 0764527 270.9757 295.3060  1.00239117 43793
GSAT-8 (GAGAN/PRN 127)  
1 37605U 11022A   22239.47665296  .00000082  00000+0  00000+0 0  9998
2 37605   0.0166 148.1381 0004022 100.8726 313.3365  1.00268527 39281
LUCH 5A (SDCM/PRN 140)  
1 37951U 11074B   22239.62248080 -.00000049  00000+0  00000+0 0  9998
2 37951   5.1913  96.3449 0004508  38.9503 231.5556  1.00271482 39257
SES-5 (EGNOS/PRN 136)   
1 38652U 12036A   22239.39702193  .00000031  00000+0  00000+0 0  9990
2 38652   0.0617 296.2337 0001914 218.3069 328.9707  1.00271423 30555
GSAT-10 (GAGAN/PRN 128) 
1 38779U 12051B   22239.48223378 -.00000168  00000+0  00000+0 0  9992
2 38779   0.0820 270.5101 0001672 305.0453  16.7523  1.00272902 36183
LUCH 5B (SDCM/PRN 125)  
1 38977U 12061A   22239.31897759 -.00000135  00000+0  00000+0 0  9999
2 38977   7.4418  62.0766 0005633  82.1855 289.8506  1.00272302 36243
ASTRA 5B (EGNOS/PRN 123)
1 39617U 14011B   22239.38591074  .00000152  00000+0  00000+0 0  9994
2 39617   0.0157 343.7537 0004093 182.5715 339.6848  1.00271305 30731
LUCH 5V (SDCM/PRN 141)  
1 39727U 14023A   22239.48458819 -.00000272  00000+0  00000+0 0  9993
2 39727   1.6599  76.2662 0003182 100.7355  67.8922  1.00273394 30426
GSAT-15 (GAGAN/PRN 139) 
1 41028U 15065A   22239.36160361 -.00000261  00000+0  00000+0 0  9994
2 41028   0.0561 287.3888 0002581 178.6372  93.2148  1.00269899 24875
E 117 W B (WAAS/PRN 131)
1 41589U 16038B   22239.46136955 -.00000014  00000+0  00000+0 0  9996
2 41589   0.0115 264.1140 0000182 262.6863 217.9559  1.00270883 22739
SES-15 (WAAS/PRN 133)   
1 42709U 17026A   22239.44623779  .00000057  00000+0  00000+0 0  9998
2 42709   0.0362 336.7452 0000169 209.4699 180.9361  1.00269144 20209
QZS-2 (QZSS/PRN 184)    
1 42738U 17028A   22238.91832545 -.00000113  00000+0  00000+0 0  9990
2 42738  41.6585 263.1731 0753499 269.9839 273.5715  1.00268079 19206
QZS-3 (QZSS/PRN 189)    
1 42917U 17048A   22239.49104102 -.00000351  00000+0  00000+0 0  9990
2 42917   0.0584 197.9470 0001255 355.9876  85.5181  1.00267486 18321
QZS-4 (QZSS/PRN 185)    
1 42965U 17062A   22239.20465795 -.00000315  00000+0  00000+0 0  9996
2 42965  40.7540   1.2122 0747274 269.1826 276.6498  1.00288237 17877
GALAXY 30 (WAAS/PRN 135)
1 46114U 20056C   22239.45300281  .00000035  00000+0  00000+0 0  9996
2 46114   0.0246 139.2323 0002182  26.6794 207.8272  1.00269683  7358
